{
"type": "FeatureCollection",
"properties": { "_note": "FICHIER D'EXEMPLE — remplacez ce contenu par le vrai périmètre du feu (Incendie.geojson). Le polygone ci-dessous est fictif et sert uniquement à tester l'affichage de la carte." },
"name": "incendie",
"features": [
{ "type": "Feature", "properties": { "nom": "Amplitude du feu estimée", "date_maj": null, "source": "https://forest-fire.emergency.copernicus.eu/apps/effis.csv/?c=-124567.27,5526738.86&z=12.597770300672249&t=sentinel2&tiles=nrt.ba.today&forecastActive=false&sourceId=ecmwf&indexId=fdf.ecmwf007.fwi&forecastDate=2026-07-24&rdaFrom=2026-07-23&rdaTo=2026-07-24&rdaDateRange=today&layerInfoPoint&fdcPoint&fdcDate&fbclid=IwVERDUATRGcNwZG9mBWV4dG4DYWVtAjEwAHNydGMGYXBwX2lkDDM1MDY4NTUzMTcyOAABHojwWPmR7CmNvc3JxqYgS-7Izk6fYtHfI-Euov_Vjybf7V5bdXwTeTffQj2Z_aem_amryNhZMz8IsgUTO4gozgA", "exemple": false }, "geometry": { "type": "Polygon", "coordinates": [ [ [ -1.145539915031648, 44.435756980824721 ], [ -1.146029552337348, 44.441510219166688 ], [ -1.140357920212995, 44.441959053363583 ], [ -1.131695818934066, 44.44053531363668 ], [ -1.127382531611959, 44.443795193259952 ], [ -1.125045618122223, 44.448232305317056 ], [ -1.115316620638231, 44.447986001583288 ], [ -1.112422551766411, 44.444537749310477 ], [ -1.107927508625073, 44.448417033117387 ], [ -1.104048224818164, 44.447862849716401 ], [ -1.102631978348976, 44.441458952638328 ], [ -1.109159027293932, 44.437518092897974 ], [ -1.105279743487024, 44.433207777556966 ], [ -1.104109800751607, 44.423047748538877 ], [ -1.095427594136146, 44.420030527800172 ], [ -1.091733038129567, 44.425264482142822 ], [ -1.087607450588887, 44.423909811607075 ], [ -1.08871581739086, 44.417505914529009 ], [ -1.085146993666211, 44.414025965128296 ], [ -1.089038170136799, 44.41101493571653 ], [ -1.095797049736804, 44.402111931168257 ], [ -1.095612321936475, 44.396877976825607 ], [ -1.095489170069589, 44.392813965218366 ], [ -1.098136935207638, 44.390474079747534 ], [ -1.098814270475511, 44.385917460672751 ], [ -1.093826619866629, 44.382161328732728 ], [ -1.094442379201058, 44.379328835794347 ], [ -1.096905416538778, 44.376681070656296 ], [ -1.094503955134501, 44.374218033318577 ], [ -1.093765043933186, 44.370523477311998 ], [ -1.096720688738449, 44.367752560307061 ], [ -1.099861061344041, 44.367814136240504 ], [ -1.101031004079458, 44.370523477311998 ], [ -1.099060574209283, 44.373971729584802 ], [ -1.104109800751608, 44.372740210915943 ], [ -1.106695989956213, 44.364612187701468 ], [ -1.109466906961148, 44.362888061565066 ], [ -1.116702079140699, 44.367629408440159 ], [ -1.11879566087776, 44.362333878164065 ], [ -1.121135546348594, 44.360486600160776 ], [ -1.12353700775287, 44.361594966962748 ], [ -1.123783311486642, 44.366644193505074 ], [ -1.125815317290261, 44.369538262376899 ], [ -1.137022137176885, 44.365905282303764 ], [ -1.142009787785767, 44.358269866556839 ], [ -1.157458023077975, 44.363857582775353 ], [ -1.172096258372093, 44.373214935716533 ], [ -1.177469787783858, 44.38053405336359 ], [ -1.168297728960328, 44.38034875924594 ], [ -1.160422728960328, 44.378681112187124 ], [ -1.159496258372093, 44.382479641598884 ], [ -1.151713905430917, 44.390632582775353 ], [ -1.150694787783858, 44.401842876892999 ], [ -1.152269787783858, 44.409810523951826 ], [ -1.155558758372093, 44.413377435716534 ], [ -1.156763170136799, 44.416712729834181 ], [ -1.162970523077976, 44.420696553363591 ], [ -1.169316846607387, 44.421576700422413 ], [ -1.168112434842681, 44.426255376893003 ], [ -1.161905081901505, 44.42528258277536 ], [ -1.16019111131327, 44.425884788657712 ], [ -1.158338170136799, 44.425884788657712 ], [ -1.153242581901505, 44.429451700422419 ], [ -1.149351405430917, 44.432231112187125 ], [ -1.145645523077976, 44.432138465128297 ], [ -1.145539915031648, 44.435756980824721 ] ] ] } }
]
}
